NORAD_CAT_ID,OBJECT_NAME,OBJECT_TYPE,EPOCH,MEAN_MOTION,ECCENTRICITY,INCLINATION,RA_OF_ASC_NODE,ARG_OF_PERICENTER,MEAN_ANOMALY,BSTAR,MEAN_MOTION_DOT,MEAN_MOTION_DDOT,TLE_LINE0,TLE_LINE1,TLE_LINE2,SEMIMAJOR_AXIS,PERIOD,APOGEE,PERIGEE,DECAYED
49733.0,STARLINK-3252,PAYLOAD,2023-11-02 13:47:21,15.08854358,0.0001293,53.2175,51.348,88.7842,271.3298,0.00068558,0.00010644,0.0,0 STARLINK-3252,1 49733U 21115K   23306.57455445  .00010644  00000-0  68558-3 0  9999,2 49733  53.2175  51.3480 0001293  88.7842 271.3298 15.08854358106954,6917.837,95.437,540.596,538.807,0.0
49733.0,STARLINK-3252,PAYLOAD,2023-11-03 10:27:22,15.08849919,0.0001197,53.2173,47.4834,74.165,285.9475,0.000975,0.00015267,0.0,0 STARLINK-3252,1 49733U 21115K   23307.43567782  .00015267  00000-0  97500-3 0  9998,2 49733  53.2173  47.4834 0001197  74.1650 285.9475 15.08849919107080,6917.85,95.437,540.543,538.887,0.0
49733.0,STARLINK-3252,PAYLOAD,2023-11-03 13:38:08,15.08856763,0.0001393,53.2176,46.8851,88.5927,271.5224,0.00089845,0.00014046,0.0,0 STARLINK-3252,1 49733U 21115K   23307.56815546  .00014046  00000-0  89845-3 0  9993,2 49733  53.2176  46.8851 0001393  88.5927 271.5224 15.08856763105995,6917.829,95.436,540.658,538.73,0.0
49733.0,STARLINK-3252,PAYLOAD,2023-11-04 10:18:09,15.08850807,0.0001386,53.2178,43.0224,90.1468,269.9683,0.00044497,6.803e-05,0.0,0 STARLINK-3252,1 49733U 21115K   23308.42927614  .00006803  00000-0  44497-3 0  9995,2 49733  53.2178  43.0224 0001386  90.1468 269.9683 15.08850807107233,6917.847,95.437,540.671,538.754,0.0
49733.0,STARLINK-3252,PAYLOAD,2023-11-04 13:28:55,15.08848403,0.0001415,53.2171,42.4287,83.9013,276.2141,0.0004538,6.943e-05,0.0,0 STARLINK-3252,1 49733U 21115K   23308.56175608  .00006943  00000-0  45380-3 0  9995,2 49733  53.2171  42.4287 0001415  83.9013 276.2141 15.08848403106145,6917.855,95.437,540.699,538.741,0.0
49733.0,STARLINK-3252,PAYLOAD,2023-11-05 05:22:47,15.08845145,0.000159,53.2184,39.4572,87.9387,272.1787,0.00026674,3.96e-05,0.0,0 STARLINK-3252,1 49733U 21115K   23309.22415797  .00003960  00000-0  26674-3 0  9996,2 49733  53.2184  39.4572 0001590  87.9387 272.1787 15.08845145107359,6917.865,95.437,540.83,538.63,0.0
49733.0,STARLINK-3252,PAYLOAD,2023-11-05 11:44:19,15.08854,0.0001446,53.2179,38.2642,84.5049,275.6108,0.00038392,5.83e-05,0.0,0 STARLINK-3252,1 49733U 21115K   23309.48911289  .00005830  00000-0  38392-3 0  9999,2 49733  53.2179  38.2642 0001446  84.5049 275.6108 15.08854000106282,6917.838,95.437,540.703,538.702,0.0
49733.0,STARLINK-3252,PAYLOAD,2023-11-06 11:35:05,15.08857124,0.0001491,53.2187,33.8062,99.4269,260.6891,0.00026344,3.909e-05,0.0,0 STARLINK-3252,1 49733U 21115K   23310.48270482  .00003909  00000-0  26344-3 0  9993,2 49733  53.2187  33.8062 0001491  99.4269 260.6891 15.08857124107540,6917.828,95.436,540.724,538.662,0.0
49733.0,STARLINK-3252,PAYLOAD,2023-11-06 13:10:30,15.08797954,0.0001414,53.2174,33.5098,88.6616,271.4538,-0.00089064,-0.00014418,0.0,0 STARLINK-3252,1 49733U 21115K   23310.54896742 -.00014418  00000-0 -89064-3 0  9990,2 49733  53.2174  33.5098 0001414  88.6616 271.4538 15.08797954106443,6918.009,95.44,540.852,538.896,0.0
49733.0,STARLINK-3252,PAYLOAD,2023-11-07 11:25:56,15.08814484,0.0001457,53.2173,29.3434,93.6312,266.4847,-0.00015351,-2.728e-05,0.0,0 STARLINK-3252,1 49733U 21115K   23311.47634384 -.00002728  00000-0 -15351-3 0  9994,2 49733  53.2173  29.3434 0001457  93.6312 266.4847 15.08814484107698,6917.958,95.439,540.831,538.815,0.0
49733.0,STARLINK-3252,PAYLOAD,2023-11-07 13:01:19,15.08816981,0.0001423,53.2175,29.0456,80.2896,279.8257,-6.6605e-05,-1.347e-05,0.0,0 STARLINK-3252,1 49733U 21115K   23311.54258512 -.00001347  00000-0 -66605-4 0  9992,2 49733  53.2175  29.0456 0001423  80.2896 279.8257 15.08816981106598,6917.951,95.439,540.8,538.831,0.0
49733.0,STARLINK-3252,PAYLOAD,2023-11-07 22:33:38,15.08825726,0.0001378,53.2186,27.2656,78.8279,281.2868,0.00024363,3.59e-05,0.0,0 STARLINK-3252,1 49733U 21115K   23311.94002631  .00003590  00000-0  24363-3 0  9999,2 49733  53.2186  27.2656 0001378  78.8279 281.2868 15.08825726107761,6917.924,95.438,540.742,538.836,0.0
49733.0,STARLINK-3252,PAYLOAD,2023-11-08 11:16:43,15.08845387,0.0001603,53.2181,24.8873,71.6606,288.456,0.00057745,8.915e-05,0.0,0 STARLINK-3252,1 49733U 21115K   23312.46994437  .00008915  00000-0  57745-3 0  9997,2 49733  53.2181  24.8873 0001603  71.6606 288.4560 15.08845387107848,6917.864,95.437,540.838,538.62,0.0
49733.0,STARLINK-3252,PAYLOAD,2023-11-08 22:24:25,15.08843657,0.000152,53.217,22.8105,63.8016,296.3133,0.00084142,0.0001313,0.0,0 STARLINK-3252,1 49733U 21115K   23312.93362428  .00013130  00000-0  84142-3 0  9994,2 49733  53.2170  22.8105 0001520  63.8016 296.3133 15.08843657106805,6917.869,95.437,540.786,538.683,0.0
49733.0,STARLINK-3252,PAYLOAD,2023-11-09 09:32:06,15.08845015,0.0001307,53.2195,20.7264,60.6784,299.4339,0.00039015,5.928e-05,0.0,0 STARLINK-3252,1 49733U 21115K   23313.39730124  .00005928  00000-0  39015-3 0  9992,2 49733  53.2195  20.7264 0001307  60.6784 299.4339 15.08845015107987,6917.865,95.437,540.634,538.826,0.0
49733.0,STARLINK-3252,PAYLOAD,2023-11-10 10:58:15,15.08855088,0.0001638,53.2199,15.9694,109.0876,251.0294,-7.3332e-05,-1.455e-05,0.0,0 STARLINK-3252,1 49733U 21115K   23314.45712840 -.00001455  00000-0 -73332-4 0  9999,2 49733  53.2199  15.9694 0001638 109.0876 251.0294 15.08855088108145,6917.834,95.437,540.832,538.566,0.0
49733.0,STARLINK-3252,PAYLOAD,2023-11-11 04:27:31,15.08836802,0.0001478,53.2195,12.6992,69.7004,290.4147,3.6195e-05,2.88e-06,0.0,0 STARLINK-3252,1 49733U 21115K   23315.18577585  .00000288  00000-0  36195-4 0  9992,2 49733  53.2195  12.6992 0001478  69.7004 290.4147 15.08836802108252,6917.89,95.438,540.778,538.733,0.0
49733.0,STARLINK-3252,PAYLOAD,2023-11-11 09:13:40,15.08840427,0.0001562,53.2191,11.8059,74.2091,285.9073,2.4114e-05,9.6e-07,0.0,0 STARLINK-3252,1 49733U 21115K   23315.38449752  .00000096  00000-0  24114-4 0  9993,2 49733  53.2191  11.8059 0001562  74.2091 285.9073 15.08840427107179,6917.879,95.438,540.825,538.664,0.0
49733.0,STARLINK-3252,PAYLOAD,2023-11-11 20:21:22,15.08839831,0.0001425,53.2183,9.7214,93.7531,266.3624,3.9601e-05,3.42e-06,0.0,0 STARLINK-3252,1 49733U 21115K   23315.84817334  .00000342  00000-0  39601-4 0  9990,2 49733  53.2183   9.7214 0001425  93.7531 266.3624 15.08839831107242,6917.881,95.438,540.732,538.76,0.0
49733.0,STARLINK-3252,PAYLOAD,2023-11-12 10:39:50,15.08840881,0.0001489,53.2184,7.0453,99.0559,261.0602,7.365e-05,8.84e-06,0.0,0 STARLINK-3252,1 49733U 21115K   23316.44433164  .00000884  00000-0  73650-4 0  9995,2 49733  53.2184   7.0453 0001489  99.0559 261.0602 15.08840881108446,6917.878,95.437,540.773,538.713,0.0
49733.0,STARLINK-3252,PAYLOAD,2023-11-12 20:12:09,15.08828684,0.0001566,53.2182,5.2611,93.9552,266.1619,0.0002423,3.569e-05,0.0,0 STARLINK-3252,1 49733U 21115K   23316.84177650  .00003569  00000-0  24230-3 0  9996,2 49733  53.2182   5.2611 0001566  93.9552 266.1619 15.08828684107396,6917.915,95.438,540.863,538.697,0.0
49733.0,STARLINK-3252,PAYLOAD,2023-11-13 10:30:37,15.08835254,0.0001553,53.2188,2.5853,96.3514,263.7655,0.00024266,3.576e-05,0.0,0 STARLINK-3252,1 49733U 21115K   23317.43793259  .00003576  00000-0  24266-3 0  9998,2 49733  53.2188   2.5853 0001553  96.3514 263.7655 15.08835254107485,6917.895,95.438,540.834,538.686,0.0
49733.0,STARLINK-3252,PAYLOAD,2023-11-13 20:02:56,15.08838233,0.0001573,53.2191,0.8017,99.1581,260.9589,6.8132e-05,7.96e-06,0.0,0 STARLINK-3252,1 49733U 21115K   23317.83537377  .00000796  00000-0  68132-4 0  9991,2 49733  53.2191   0.8017 0001573  99.1581 260.9589 15.08838233108654,6917.886,95.438,540.839,538.663,0.0
49733.0,STARLINK-3252,PAYLOAD,2023-11-14 10:21:24,15.08839994,0.000134,53.2191,358.125,85.4467,274.6678,6.932e-05,8.15e-06,0.0,0 STARLINK-3252,1 49733U 21115K   23318.43153270  .00000815  00000-0  69320-4 0  9996,2 49733  53.2191 358.1250 0001340  85.4467 274.6678 15.08839994107638,6917.88,95.438,540.672,538.818,0.0
49733.0,STARLINK-3252,PAYLOAD,2023-11-14 19:53:43,15.08840185,0.0001506,53.2183,356.3394,86.2232,273.8932,-1.1459e-05,-4.7e-06,0.0,0 STARLINK-3252,1 49733U 21115K   23318.82897493 -.00000470  00000-0 -11459-4 0  9990,2 49733  53.2183 356.3394 0001506  86.2232 273.8932 15.08840185107695,6917.88,95.438,540.787,538.703,0.0
49733.0,STARLINK-3252,PAYLOAD,2023-11-15 02:15:16,15.08834818,0.0001554,53.2184,355.1496,82.5049,277.612,3.5283e-05,2.74e-06,0.0,0 STARLINK-3252,1 49733U 21115K   23319.09393762  .00000274  00000-0  35283-4 0  9991,2 49733  53.2184 355.1496 0001554  82.5049 277.6120 15.08834818108849,6917.896,95.438,540.836,538.686,0.0
49733.0,STARLINK-3252,PAYLOAD,2023-11-15 10:12:11,15.08838837,0.0001504,53.2189,353.6635,82.6439,277.4724,-1.7155e-06,-3.15e-06,0.0,0 STARLINK-3252,1 49733U 21115K   23319.42513675 -.00000315  00000-0 -17155-5 0  9992,2 49733  53.2189 353.6635 0001504  82.6439 277.4724 15.08838837107786,6917.884,95.438,540.789,538.708,0.0
49733.0,STARLINK-3252,PAYLOAD,2023-11-15 19:44:30,15.08840025,0.0001522,53.2189,351.8798,83.8318,276.2848,3.726e-05,3.05e-06,0.0,0 STARLINK-3252,1 49733U 21115K   23319.82257495  .00000305  00000-0  37260-4 0  9996,2 49733  53.2189 351.8798 0001522  83.8318 276.2848 15.08840025107848,6917.88,95.438,540.798,538.692,0.0
49733.0,STARLINK-3252,PAYLOAD,2023-11-16 02:06:02,15.0885187,0.0001741,53.2191,350.6904,82.9387,277.1803,-0.00011469,-2.114e-05,0.0,0 STARLINK-3252,1 49733U 21115K   23320.08753278 -.00002114  00000-0 -11469-3 0  9990,2 49733  53.2191 350.6904 0001741  82.9387 277.1803 15.08851870108994,6917.844,95.437,540.914,538.505,0.0
49733.0,STARLINK-3252,PAYLOAD,2023-11-16 08:27:35,15.08840754,0.0001658,53.2188,349.501,80.0745,280.0434,6.2832e-05,7.12e-06,0.0,0 STARLINK-3252,1 49733U 21115K   23320.35249448  .00000712  00000-0  62832-4 0  9990,2 49733  53.2188 349.5010 0001658  80.0745 280.0434 15.08840754109037,6917.878,95.438,540.89,538.596,0.0
